{"type": "FeatureCollection", "features": [ {"type": "Feature", "properties": {"norad_id": 66598, "name": "STARLINK-35981", "group": "last-30-days", "lat": 37.408214084811014, "lon": -123.09449435569167, "alt_km": 409.76639506680203, "timestamp": "2025-12-14T14:39:28.132268+00:00", "meta": {"OBJECT_NAME": "STARLINK-35981", "OBJECT_ID": "2025-270L", "EPOCH": "2025-12-13T20:00:03.000384", "MEAN_MOTION": 15.50520997, "ECCENTRICITY": 0.00014413, "INCLINATION": 42.9998, "RA_OF_ASC_NODE": 186.2963, "ARG_OF_PERICENTER": 264.4082, "MEAN_ANOMALY": 134.0635, "EPHEMERIS_TYPE": 0, "CLASSIFICATION_TYPE": "U", "NORAD_CAT_ID": 66598, "ELEMENT_SET_NO": 999, "REV_AT_EPOCH": 441, "BSTAR": 0.0012665475, "MEAN_MOTION_DOT": 0.00074517, "MEAN_MOTION_DDOT": 0}, "tle": {"line1": "1 66598U 25270L   25347.83336806  .00074517  00000+0  12665-2 0  9993", "line2": "2 66598  42.9998 186.2963 0001441 264.4082 134.0635 15.50520997  4412"}}, "geometry": {"type": "Point", "coordinates": [-123.09449435569167, 37.408214084811014]}}, {"type": "Feature", "properties": {"norad_id": 66599, "name": "STARLINK-35930", "group": "last-30-days", "lat": 38.133264229849274, "lon": -120.85477261219495, "alt_km": 409.01249648117846, "timestamp": "2025-12-14T14:39:28.132278+00:00", "meta": {"OBJECT_NAME": "STARLINK-35930", "OBJECT_ID": "2025-270M", "EPOCH": "2025-12-13T20:00:03.000384", "MEAN_MOTION": 15.50519893, "ECCENTRICITY": 4.333e-05, "INCLINATION": 42.9998, "RA_OF_ASC_NODE": 186.2927, "ARG_OF_PERICENTER": 275.7722, "MEAN_ANOMALY": 124.617, "EPHEMERIS_TYPE": 0, "CLASSIFICATION_TYPE": "U", "NORAD_CAT_ID": 66599, "ELEMENT_SET_NO": 999, "REV_AT_EPOCH": 457, "BSTAR": 0.0012926863, "MEAN_MOTION_DOT": 0.00076073, "MEAN_MOTION_DDOT": 0}, "tle": {"line1": "1 66599U 25270M   25347.83336806  .00076073  00000+0  12927-2 0  9994", "line2": "2 66599  42.9998 186.2927 0000433 275.7722 124.6170 15.50519893  4578"}}, "geometry": {"type": "Point", "coordinates": [-120.85477261219495, 38.133264229849274]}}, {"type": "Feature", "properties": {"norad_id": 66600, "name": "STARLINK-35980", "group": "last-30-days", "lat": 38.81365248108681, "lon": -118.57637036603936, "alt_km": 410.2415527859275, "timestamp": "2025-12-14T14:39:28.132290+00:00", "meta": {"OBJECT_NAME": "STARLINK-35980", "OBJECT_ID": "2025-270N", "EPOCH": "2025-12-13T20:00:03.000384", "MEAN_MOTION": 15.505215, "ECCENTRICITY": 0.00025763, "INCLINATION": 42.9996, "RA_OF_ASC_NODE": 186.2875, "ARG_OF_PERICENTER": 270.1868, "MEAN_ANOMALY": 132.1174, "EPHEMERIS_TYPE": 0, "CLASSIFICATION_TYPE": "U", "NORAD_CAT_ID": 66600, "ELEMENT_SET_NO": 999, "REV_AT_EPOCH": 447, "BSTAR": 0.0011330823, "MEAN_MOTION_DOT": 0.00066566, "MEAN_MOTION_DDOT": 0}, "tle": {"line1": "1 66600U 25270N   25347.83336806  .00066566  00000+0  11331-2 0  9991", "line2": "2 66600  42.9996 186.2875 0002576 270.1868 132.1174 15.50521500  4476"}}, "geometry": {"type": "Point", "coordinates": [-118.57637036603936, 38.81365248108681]}}, {"type": "Feature", "properties": {"norad_id": 66601, "name": "STARLINK-35978", "group": "last-30-days", "lat": 36.82079925521707, "lon": -124.79036035914261, "alt_km": 422.33011666401217, "timestamp": "2025-12-14T14:39:28.132300+00:00", "meta": {"OBJECT_NAME": "STARLINK-35978", "OBJECT_ID": "2025-270P", "EPOCH": "2025-12-13T20:00:03.000384", "MEAN_MOTION": 15.49851228, "ECCENTRICITY": 0.00011096, "INCLINATION": 42.9996, "RA_OF_ASC_NODE": 186.2818, "ARG_OF_PERICENTER": 271.9421, "MEAN_ANOMALY": 132.0323, "EPHEMERIS_TYPE": 0, "CLASSIFICATION_TYPE": "U", "NORAD_CAT_ID": 66601, "ELEMENT_SET_NO": 999, "REV_AT_EPOCH": 441, "BSTAR": -0.041295062, "MEAN_MOTION_DOT": -0.02096132, "MEAN_MOTION_DDOT": 0}, "tle": {"line1": "1 66601U 25270P   25347.83336806 -.02096132  00000+0 -41295-1 0  9999", "line2": "2 66601  42.9996 186.2818 0001109 271.9421 132.0323 15.49851228  4419"}}, "geometry": {"type": "Point", "coordinates": [-124.79036035914261, 36.82079925521707]}}, {"type": "Feature", "properties": {"norad_id": 66602, "name": "STARLINK-36050", "group": "last-30-days", "lat": -0.43760661634146353, "lon": -178.5680201859504, "alt_km": 444.01860730633507, "timestamp": "2025-12-14T14:39:28.132314+00:00", "meta": {"OBJECT_NAME": "STARLINK-36050", "OBJECT_ID": "2025-270Q", "EPOCH": "2025-12-13T20:00:03.000384", "MEAN_MOTION": 15.40662865, "ECCENTRICITY": 0.00015776, "INCLINATION": 42.9996, "RA_OF_ASC_NODE": 186.3823, "ARG_OF_PERICENTER": 255.1434, "MEAN_ANOMALY": 107.478, "EPHEMERIS_TYPE": 0, "CLASSIFICATION_TYPE": "U", "NORAD_CAT_ID": 66602, "ELEMENT_SET_NO": 999, "REV_AT_EPOCH": 447, "BSTAR": 0.00069530869, "MEAN_MOTION_DOT": 0.00028815, "MEAN_MOTION_DDOT": 0}, "tle": {"line1": "1 66602U 25270Q   25347.83336806  .00028815  00000+0  69531-3 0  9994", "line2": "2 66602  42.9996 186.3823 0001577 255.1434 107.4780 15.40662865  4471"}}, "geometry": {"type": "Point", "coordinates": [-178.5680201859504, -0.43760661634146353]}}, {"type": "Feature", "properties": {"norad_id": 66603, "name": "STARLINK-36048", "group": "last-30-days", "lat": 40.56182904681534, "lon": -111.55923407719668, "alt_km": 409.7511587582376, "timestamp": "2025-12-14T14:39:28.132325+00:00", "meta": {"OBJECT_NAME": "STARLINK-36048", "OBJECT_ID": "2025-270R", "EPOCH": "2025-12-13T20:00:03.000384", "MEAN_MOTION": 15.50546418, "ECCENTRICITY": 0.00016452, "INCLINATION": 42.9997, "RA_OF_ASC_NODE": 186.2724, "ARG_OF_PERICENTER": 250.6549, "MEAN_ANOMALY": 157.3977, "EPHEMERIS_TYPE": 0, "CLASSIFICATION_TYPE": "U", "NORAD_CAT_ID": 66603, "ELEMENT_SET_NO": 999, "REV_AT_EPOCH": 447, "BSTAR": 0.00013154381, "MEAN_MOTION_DOT": 7.374e-05, "MEAN_MOTION_DDOT": 0}, "tle": {"line1": "1 66603U 25270R   25347.83336806  .00007374  00000+0  13154-3 0  9992", "line2": "2 66603  42.9997 186.2724 0001645 250.6549 157.3977 15.50546418  4473"}}, "geometry": {"type": "Point", "coordinates": [-111.55923407719668, 40.56182904681534]}}, {"type": "Feature", "properties": {"norad_id": 66604, "name": "STARLINK-35977", "group": "last-30-days", "lat": 41.06446119692895, "lon": -109.05266504201745, "alt_km": 409.4586180382339, "timestamp": "2025-12-14T14:39:28.132337+00:00", "meta": {"OBJECT_NAME": "STARLINK-35977", "OBJECT_ID": "2025-270S", "EPOCH": "2025-12-13T20:00:03.000384", "MEAN_MOTION": 15.50468794, "ECCENTRICITY": 0.00015548, "INCLINATION": 42.9997, "RA_OF_ASC_NODE": 186.2679, "ARG_OF_PERICENTER": 262.0513, "MEAN_ANOMALY": 148.0151, "EPHEMERIS_TYPE": 0, "CLASSIFICATION_TYPE": "U", "NORAD_CAT_ID": 66604, "ELEMENT_SET_NO": 999, "REV_AT_EPOCH": 457, "BSTAR": 0.0014187105, "MEAN_MOTION_DOT": 0.00083451, "MEAN_MOTION_DDOT": 0}, "tle": {"line1": "1 66604U 25270S   25347.83336806  .00083451  00000+0  14187-2 0  9999", "line2": "2 66604  42.9997 186.2679 0001554 262.0513 148.0151 15.50468794  4572"}}, "geometry": {"type": "Point", "coordinates": [-109.05266504201745, 41.06446119692895]}}, {"type": "Feature", "properties": {"norad_id": 66605, "name": "STARLINK-36052", "group": "last-30-days", "lat": 41.500911700198394, "lon": -106.57653717276436, "alt_km": 409.38338965088406, "timestamp": "2025-12-14T14:39:28.132347+00:00", "meta": {"OBJECT_NAME": "STARLINK-36052", "OBJECT_ID": "2025-270T", "EPOCH": "2025-12-13T20:00:03.000384", "MEAN_MOTION": 15.50525361, "ECCENTRICITY": 0.00016012, "INCLINATION": 42.9997, "RA_OF_ASC_NODE": 186.2632, "ARG_OF_PERICENTER": 268.1479, "MEAN_ANOMALY": 143.738, "EPHEMERIS_TYPE": 0, "CLASSIFICATION_TYPE": "U", "NORAD_CAT_ID": 66605, "ELEMENT_SET_NO": 999, "REV_AT_EPOCH": 457, "BSTAR": 0.0008885057, "MEAN_MOTION_DOT": 0.0005203, "MEAN_MOTION_DDOT": 0}, "tle": {"line1": "1 66605U 25270T   25347.83336806  .00052030  00000+0  88851-3 0  9999", "line2": "2 66605  42.9997 186.2632 0001601 268.1479 143.7380 15.50525361  4573"}}, "geometry": {"type": "Point", "coordinates": [-106.57653717276436, 41.500911700198394]}}, {"type": "Feature", "properties": {"norad_id": 66606, "name": "STARLINK-36063", "group": "last-30-days", "lat": 42.218564069510094, "lon": -101.46283095976047, "alt_km": 409.18560959414935, "timestamp": "2025-12-14T14:39:28.132357+00:00", "meta": {"OBJECT_NAME": "STARLINK-36063", "OBJECT_ID": "2025-270U", "EPOCH": "2025-12-13T20:00:03.000384", "MEAN_MOTION": 15.50518481, "ECCENTRICITY": 0.00016138, "INCLINATION": 42.9997, "RA_OF_ASC_NODE": 186.2538, "ARG_OF_PERICENTER": 266.9033, "MEAN_ANOMALY": 148.8156, "EPHEMERIS_TYPE": 0, "CLASSIFICATION_TYPE": "U", "NORAD_CAT_ID": 66606, "ELEMENT_SET_NO": 999, "REV_AT_EPOCH": 457, "BSTAR": 0.0013927461, "MEAN_MOTION_DOT": 0.00082048, "MEAN_MOTION_DDOT": 0}, "tle": {"line1": "1 66606U 25270U   25347.83336806  .00082048  00000+0  13927-2 0  9993", "line2": "2 66606  42.9997 186.2538 0001613 266.9033 148.8156 15.50518481  4576"}}, "geometry": {"type": "Point", "coordinates": [-101.46283095976047, 42.218564069510094]}}, {"type": "Feature", "properties": {"norad_id": 66607, "name": "STARLINK-35993", "group": "last-30-days", "lat": 41.88613161432022, "lon": -104.04884540932582, "alt_km": 409.203001713141, "timestamp": "2025-12-14T14:39:28.132367+00:00", "meta": {"OBJECT_NAME": "STARLINK-35993", "OBJECT_ID": "2025-270V", "EPOCH": "2025-12-13T20:00:03.000384", "MEAN_MOTION": 15.50527268, "ECCENTRICITY": 0.00014043, "INCLINATION": 42.9997, "RA_OF_ASC_NODE": 186.2585, "ARG_OF_PERICENTER": 264.7411, "MEAN_ANOMALY": 149.0643, "EPHEMERIS_TYPE": 0, "CLASSIFICATION_TYPE": "U", "NORAD_CAT_ID": 66607, "ELEMENT_SET_NO": 999, "REV_AT_EPOCH": 447, "BSTAR": 0.00092248496, "MEAN_MOTION_DOT": 0.0005405, "MEAN_MOTION_DDOT": 0}, "tle": {"line1": "1 66607U 25270V   25347.83336806  .00054050  00000+0  92248-3 0  9990", "line2": "2 66607  42.9997 186.2585 0001404 264.7411 149.0643 15.50527268  4479"}}, "geometry": {"type": "Point", "coordinates": [-104.04884540932582, 41.88613161432022]}}]}